CCSDS_OEM_VERS = 2.0
CREATION_DATE  = 2025-09-10T16:18:46.684
ORIGINATOR     = NASA/JSC/FOD/TOPO

META_START
OBJECT_NAME          = ISS
OBJECT_ID            = 1998-067-A
CENTER_NAME          = Earth
REF_FRAME            = EME2000
TIME_SYSTEM          = UTC
START_TIME           = 2025-09-10T12:00:00.000
USEABLE_START_TIME   = 2025-09-10T12:00:00.000
USEABLE_STOP_TIME    = 2025-09-25T12:00:00.000
STOP_TIME            = 2025-09-25T12:00:00.000
META_STOP

COMMENT Source: This file was produced by the TOPO office within FOD at JSC.
COMMENT Units are in kg and m^2
COMMENT MASS=464291.00
COMMENT DRAG_AREA=1140.23
COMMENT DRAG_COEFF=1.40
COMMENT SOLAR_RAD_AREA=0.00
COMMENT SOLAR_RAD_COEFF=0.00
COMMENT Orbits start at the ascending node epoch
COMMENT ISS first asc. node: EPOCH = 2025-09-10T13:09:51.048 $ ORBIT = 840 $ LAN(DEG) = 56.69726
COMMENT ISS last asc. node : EPOCH = 2025-09-25T10:30:59.257 $ ORBIT = 1071 $ LAN(DEG) = 7.91991
COMMENT Begin sequence of events
COMMENT TRAJECTORY EVENT SUMMARY:
COMMENT 
COMMENT |       EVENT        |       TIG        | ORB |   DV    |   HA    |   HP    |
COMMENT |                    |       GMT        |     |   M/S   |   KM    |   KM    |
COMMENT |                    |                  |     |  (F/S)  |  (NM)   |  (NM)   |
COMMENT =============================================================================
COMMENT  93P_Launch            254:15:54:06.000             0.0     420.6     410.7
COMMENT                                                    (0.0)   (227.1)   (221.8)
COMMENT 
COMMENT  93P_Docking           256:17:27:21.000             0.0     420.8     410.1
COMMENT                                                    (0.0)   (227.2)   (221.4)
COMMENT 
COMMENT  NG-23 Launch          257:22:11:49.000             0.0     421.1     409.9
COMMENT                                                    (0.0)   (227.4)   (221.4)
COMMENT 
COMMENT  NG-23 Capture         260:10:35:00.000             0.0     421.6     409.2
COMMENT                                                    (0.0)   (227.7)   (221.0)
COMMENT 
COMMENT =============================================================================
COMMENT End sequence of events
2025-09-16T22:31:49.000 -2207.565829635370 -5063.268939194740 3945.129616776000 6.51968693131068 0.29695020927086 4.02244274233920
2025-09-16T22:35:49.000 -581.454047632587 -4808.378476630870 4754.571222092090 6.94830491915185 1.81394383321836 2.68170593991662
2025-09-16T22:39:49.000 1087.026590286400 -4203.257759998970 5216.726317986760 6.87073212621378 3.19775948839435 1.14614760519923
2025-09-16T22:43:49.000 2676.401817950360 -3292.172093096770 5298.076337626590 6.29317551601407 4.34816488167986 -0.47228650432977
2025-09-16T22:47:49.000 4071.038315788040 -2141.532236694860 4992.820566077180 5.25782033531061 5.18192332405111 -2.05591104227079
2025-09-16T22:51:49.000 5169.468649881470 -835.081543187191 4323.259363760920 3.83980404420341 5.63868096146256 -3.48963456069583
2025-09-16T22:55:49.000 5891.703280709080 532.131521130206 3338.193906976870 2.14197368694022 5.68515222773660 -4.66900095259194
2025-09-16T22:59:49.000 6185.080208119960 1860.602864349230 2109.452550503200 0.28785103472643 5.31778121863681 -5.50777519818561
2025-09-16T23:00:00.000 6187.770651434930 1918.953811353780 2048.705829987310 0.20131421646311 5.29134583884044 -5.53694104610211
2025-09-16T23:04:00.000 6010.272423824640 3103.581630982820 661.266076377723 -1.67135201648117 4.52025476464673 -5.95418331451059
2025-09-16T23:08:00.000 5395.342727254580 4062.327864777350 -774.445837154344 -3.42157717055420 3.42061809548657 -5.93680590773568
2025-09-16T23:12:00.000 4387.980239978700 4725.607172446110 -2153.691438905390 -4.92162794851876 2.07320037395302 -5.48663820996781
2025-09-16T23:16:00.000 3061.759255984570 5045.510189780000 -3376.027294986940 -6.06260834192441 0.57670557229641 -4.63738726278262
2025-09-16T23:20:00.000 1513.304787133200 4999.214636017900 -4352.665302619390 -6.76247270696798 -0.95986129767498 -3.45178799030905
2025-09-16T23:24:00.000 -144.872818388318 4590.476712487000 -5012.861937061310 -6.97158920403752 -2.42537281423037 -2.01647477581815
2025-09-16T23:28:00.000 -1792.557524908200 3849.185223239470 -5308.886154448230 -6.67564983323311 -3.71444938292495 -0.43540572390416
2025-09-16T23:32:00.000 -3310.405086802130 2829.105782014660 -5219.302522729270 -5.89610785297002 -4.73460080323737 1.17751200118368
2025-09-16T23:36:00.000 -4588.364259735750 1604.037529285040 -4750.442564138270 -4.68852711025717 -5.41229929280347 2.70609107900554
2025-09-16T23:40:00.000 -5533.476811761760 262.637426540951 -3936.013042152370 -3.13902901698991 -5.69798807568326 4.03967942728016
2025-09-16T23:44:00.000 -6076.599129351920 -1097.810451703560 -2834.849000157910 -1.35889043745305 -5.56985280953334 5.08079943455690
2025-09-16T23:48:00.000 -6177.589586774690 -2378.352656214210 -1526.854530380750 0.52289251125626 -5.03598172726591 5.75249800197974
2025-09-16T23:52:00.000 -5828.484984969420 -3485.587474480820 -107.311961914975 2.36880846560003 -4.13436145446872 6.00446116672816
2025-09-16T23:56:00.000 -5054.321179475910 -4338.609505107060 1320.069348972580 4.04314755187038 -2.93055184388279 5.81731746953112
2025-09-17T00:00:00.000 -3911.421535183030 -4875.100879120940 2650.866747698190 5.42264120914817 -1.51288091410925 5.20457139768358
2025-09-17T00:04:00.000 -2483.211588395560 -5055.994002153510 3787.761148602500 6.40615536608133 0.01451369043724 4.21148483254903
2025-09-17T00:08:00.000 -873.962099974417 -4868.304351096740 4647.751900596050 6.92214367861430 1.53979946427236 2.91130455275897
2025-09-17T00:12:00.000 798.961837179315 -4325.978900054340 5168.218558692030 6.93367444327109 2.95178092636070 1.39951137660069
2025-09-17T00:16:00.000 2413.738755287390 -3468.741009404290 5311.397934348120 6.44063031159371 4.14815048286691 -0.21354575344586
2025-09-17T00:20:00.000 3852.893240832870 -2359.091294155850 5066.996543001680 5.47907988917261 5.04243732602661 -1.81063809313905
2025-09-17T00:24:00.000 5011.718608102480 -1077.793563487830 4452.879057250810 4.11877244371887 5.56983355277681 -3.27569743362545
2025-09-17T00:28:00.000 5805.838053808660 281.930461596553 3513.806624304250 2.45837851109194 5.69197585198236 -4.50201658889484
2025-09-17T00:32:00.000 6177.356621654420 1621.127084459030 2318.244704726990 0.61863477368027 5.39978975243980 -5.39996995411006
2025-09-17T00:36:00.000 6099.166454636090 2842.302964100490 953.435166873454 -1.26619189036938 4.71450094092232 -5.90372736362230
2025-09-17T00:40:00.000 5577.027076492150 3856.592837406680 -480.976725297228 -3.05822339010659 3.68637738699911 -5.97647038898485
2025-09-17T00:44:00.000 4649.162981058090 4590.327102674640 -1880.315188382330 -4.62652708289296 2.39095363039131 -5.61335644896497
2025-09-17T00:48:00.000 3383.380467774900 4990.434912270390 -3142.627060548840 -5.85710056619105 0.92323319066744 -4.84173125547639
2025-09-17T00:52:00.000 1871.952643177380 5028.246780035660 -4176.167746704750 -6.66125953691167 -0.60975543900495 -3.71871435098034
2025-09-17T00:56:00.000 224.762884717006 4701.425728695760 -4906.026521246080 -6.98175565554968 -2.09696627477110 -2.32653181983009
2025-09-17T01:00:00.000 -1438.716385193500 4033.959876722490 -5279.419211530610 -6.79629046159293 -3.43134643783315 -0.76618964723933
2025-09-17T01:04:00.000 -2997.980188430070 3074.314914495290 -5269.337573648330 -6.11853657171317 -4.51712570777901 0.84977573372326
2025-09-17T01:08:00.000 -4340.017875802180 1891.937837428480 -4876.395158558450 -4.99688923451067 -5.27619076671566 2.40501793970686
2025-09-17T01:12:00.000 -5367.299417966250 572.373921529208 -4128.810566007920 -3.51128745530703 -5.65328016497922 3.78712970568119
2025-09-17T01:16:00.000 -6004.782670210480 -788.733927556075 -3080.534909706350 -1.76818297948156 -5.62007146075736 4.89535159590481
2025-09-17T01:20:00.000 -6205.481966865000 -2092.444489239050 -1807.562199483460 0.10637315670427 -5.17767943857856 5.64792421739904
2025-09-17T01:24:00.000 -5954.153638746390 -3243.709328417700 -402.564644741127 1.97554312866782 -4.35735368406215 5.98860721033328
2025-09-17T01:28:00.000 -5268.658887011330 -4158.433114801460 1031.858432835640 3.70207890341066 -3.21857164647352 5.89150187951225
2025-09-17T01:32:00.000 -4198.791237140320 -4769.773016840840 2390.783682963530 5.15885504629265 -1.84474514765849 5.36332678450457
2025-09-17T01:36:00.000 -2822.623987060400 -5033.158639719990 3574.809004930020 6.23889052067529 -0.33683783432969 4.44305195446335
2025-09-17T01:40:00.000 -1240.649507394200 -4929.570331026680 4497.456807097100 6.86349515623461 1.19459646135560 3.19866478124605
2025-09-17T01:44:00.000 431.729417676087 -4466.823055739460 5091.507399258990 6.98776971511826 2.63787537553299 1.72157898711238
2025-09-17T01:48:00.000 2072.685101802040 -3678.864025428520 5313.813824515880 6.60334759828945 3.88821910520496 0.11976593424906
2025-09-17T01:52:00.000 3562.820811619350 -2623.196747689280 5148.339916706280 5.73862926380867 4.85526021954420 -1.49022525952317
2025-09-17T01:56:00.000 4793.741053034810 -1376.664994847780 4607.224678724270 4.45635070661041 5.46907309365498 -2.99148520490768
2025-09-17T02:00:00.000 5675.834600319790 -29.950766860299 3729.907206893520 2.84944194484132 5.68498538147647 -4.27475900612704
2025-09-17T02:04:00.000 6144.806715415990 1318.943497274390 2580.340424678450 1.03471392300677 5.48710447974840 -5.24629555028392
2025-09-17T02:08:00.000 6166.442487456830 2571.820609810260 1242.393703481630 -0.85549802379620 4.88973615069736 -5.83492328331065
2025-09-17T02:12:00.000 5739.199608351020 3637.487818317190 -186.255205126643 -2.68296205528525 3.93664181079579 -5.99752394695735
2025-09-17T02:16:00.000 4894.369869788960 4438.498627426440 -1601.327166904710 -4.31406709945616 2.69787416787180 -5.72258181509687
